[{"OBJECT_NAME":"STARLINK-32118","OBJECT_ID":"2024-132C","EPOCH":"2026-03-09T08:52:39.180288","MEAN_MOTION":15.30196864,"ECCENTRICITY":0.00012711,"INCLINATION":53.1609,"RA_OF_ASC_NODE":53.7564,"ARG_OF_PERICENTER":82.9335,"MEAN_ANOMALY":277.181,"EPHEMERIS_TYPE":0,"CLASSIFICATION_TYPE":"U","NORAD_CAT_ID":60280,"ELEMENT_SET_NO":999,"REV_AT_EPOCH":9151,"BSTAR":1.7584569e-5,"MEAN_MOTION_DOT":1.62e-6,"MEAN_MOTION_DDOT":0},{"OBJECT_NAME":"HYPERFIELD-1A","OBJECT_ID":"2024-149CY","EPOCH":"2026-03-09T18:21:25.814304","MEAN_MOTION":15.29681349,"ECCENTRICITY":0.00038648,"INCLINATION":97.3842,"RA_OF_ASC_NODE":149.5066,"ARG_OF_PERICENTER":313.7844,"MEAN_ANOMALY":46.3076,"EPHEMERIS_TYPE":0,"CLASSIFICATION_TYPE":"U","NORAD_CAT_ID":60562,"ELEMENT_SET_NO":999,"REV_AT_EPOCH":8683,"BSTAR":0.00030052114,"MEAN_MOTION_DOT":8.569e-5,"MEAN_MOTION_DDOT":0}]
